#dP2022  2 27 18  0  0.00000000      96 __u+U ITR00 EXT  IAC
## 2199  64800.00000000   900.00000000 59637 0.7500000000000
+  118   C06C07C08C09C10C11C12C13C14C16C19C20C21C22C23C24C25
+        C26C27C28C29C30C32C33C34C35C36C37C38C39C40C41C42C43
+        C44C45C46E01E02E03E04E05E07E08E09E10E11E12E13E14E15
+        E18E19E21E24E25E26E27E30E31E33E34E36G01G02G03G04G05
+        G06G07G08G09G10G11G12G13G14G15G16G17G18G19G20G21G22
+        G23G24G25G26G27G28G29G30G31G32J01J02J03R01R02R03R04
+        R05R07R08R09R11R12R13R14R15R17R18R19R20R21R22R24  0
++        10 10  8  9 10  8  8  8  8 10  7  7  7  8  6 10  7
++         8  9  8  8  7  8  8  9  9  7  7 10 10 10  9  9  9
++         9  9  9  9  8  7  6  7  9  8  7  8  9  9  8  8  7
++         6  7  7  8  8  7  8  7  8  9  8  7  7  9  8  9  8
++         6  6  7  7  7  8  7  6  6  8  7  8  8  6  8  8  6
++         7  6  7  7  7  8  8  6  7  7 10 10 11  8  9  7  8
++         7  8  8  7  9  9  8  9  9  9  8  9 10  7  8  9  0
%c M  cc GPS ccc cccc cccc cccc cccc ccccc ccccc ccccc ccccc
%c cc cc ccc ccc cccc cccc cccc cccc ccccc ccccc ccccc ccccc
%f  0.0000000  0.000000000  0.00000000000  0.000000000000000
%f  0.0000000  0.000000000  0.00000000000  0.000000000000000
%i    0    0    0    0      0      0      0      0         0
%i    0    0    0    0      0      0      0      0         0
/* IAC                                ULTRA-RAPID PREDICTION
/* S/V CLOCKS ARE ALIGNED TO GNSS TIME                      
/* G:C1WC2W R:C1PC2P E:C1XC5X C:C2IC6I J:C1CC2S             
/* PCV:IGS14_2196 OL/AL:FES2004  NONE     YN ORB:CoN CLK:CoN
*  2022 02 28  6  0  0.00000000
PC06 -13635.574632  39771.266134    332.268985    128.087385
PC07  -3585.766553  29996.284470  29455.917800   -108.258049
PC08 -17386.712921  22341.233477 -31280.571462    164.814401
PC09  -7218.802843  39813.951313  11267.977948   -561.904449
PC10   4187.974326  33189.896332  26170.314955    139.515683
PC11 -16426.378468   2261.946149  22515.891491   -181.081737
PC12  -8549.853420 -16941.022480  20495.822853    681.569700
PC13  -8104.657580  23845.649122 -33744.434471   -103.735129
PC14 -21606.702782  -7014.455812 -16147.382149    452.490600
PC16 -13837.884907  39668.221971   -563.246283     92.189420
PC19  17746.722676  -2458.809248  21429.237366    891.671757
PC20  22062.970589  13975.383077   9888.298973   -833.579055
PC21 -13299.432321 -23056.546659   8371.166082   -932.750351
PC22   3022.322512 -18112.822554  21011.090021   -958.855016
PC23 -14188.375400  16143.501991  17799.670407   -951.605038
PC24 -23148.292141  -5710.879325 -14542.203243   -944.742125
PC25 -26331.660471   8711.769442   3186.734810   -772.928014
PC26  -7822.883778 -14660.106215 -22437.337860    772.907787
PC27   2740.061921  23642.707410 -14571.079895    684.379074
PC28 -10137.682849  25916.113259   2079.154752     37.885662
PC29  16766.687577 -13409.330329 -17837.961074    521.138228
PC30  14131.194697   7862.771084 -22745.422926    494.234696
PC32  13486.141650  22955.402928  -8355.531877   -971.340852
PC33 -17772.779139   2502.480454 -21355.585509   -960.859041
PC34 -14517.767117  -6888.962834  22807.070669   -459.100242
PC35   9705.862660 -26032.524846  -2846.158507    160.065938
PC36  26655.894230  -7781.418974  -2707.710849   -921.911149
PC37   6165.277126  15216.573378  22570.789166   -951.951802
PC38 -23293.977931  23611.084755 -26073.574263    214.561395
PC39 -15878.120504  38089.331649  -8156.709982     34.828322
PC40  -6123.212070  25411.143013  33101.485000    248.195357
PC41  -3337.685556  17882.257266 -21106.560550   -945.586203
PC42 -21944.835809 -14705.613195  -8924.854678   -933.938007
PC43 -16978.984706  12631.950521  18169.279161   -939.020927
PC44  -3459.885035 -23718.705173  14312.120241    579.257982
PC45  13922.214666 -16114.211494 -18026.221723    692.151437
PC46  23935.103736   4680.778714  13520.215768   -192.142526
PE01   7255.685097 -15114.368610 -24397.410797   -587.579352
PE02  -7119.652247  15158.321986  24401.282027    283.133417
PE03  -3356.528601  26269.370290 -13232.022714   -532.378416
PE04  -9908.032531 -27499.211683  -4673.821847   -974.209372
PE05 -14913.349301   9560.830196 -23710.508728   -204.889370
PE07  17632.711907  12467.887883  20253.228636   -643.515036
PE08  10227.310846  27312.637450   5087.061987   -487.093512
PE09 -17582.628818 -12181.258968 -20452.641620   5345.030194
PE10 -12074.171650 -10655.519153  24833.420784   -497.798164
PE11 -19514.941530  -1340.725900  22205.186854   4348.391265
PE12  -3125.324684 -17986.919911  23308.268544   4737.408880
PE13  19100.564956   1843.297861 -22533.154851    426.897189
PE14  -6601.422459 -22130.366170   6907.905391  -1761.322858
PE15   3000.254757  17995.054014 -23296.855934    760.653288
PE18  14671.413544  23153.773369 -17056.679640  -1740.513352
PE19   5014.955710 -24903.893832  15204.701432   -516.787680
PE21  24097.872220  -4510.569374 -16584.668083   -719.748393
PE24 -27685.751483 -10233.832608  -2454.915823  -1414.776026
PE25 -24275.432445   4317.253001  16387.924266   -565.141259
PE26  23819.111751 -15868.351679  -7552.695566   -856.822777
PE27  28060.070319   9316.449268   1203.417707   -242.323334
PE30  14341.965372  17803.502754  18775.848873   -309.851521
PE31 -15492.984331 -17543.721840 -18125.499182   -492.831785
PE33  14799.659349 -23473.451396  10330.474939   -459.018899
PE34 -14598.304371  23508.359336 -10510.956202   -504.196804
PE36 -23869.973143  15261.985355   8555.996954   -338.548958
PG01  -8691.962092  19192.293845 -16233.230979    420.560582
PG02  21327.192780 -15601.227851  -2644.615548   -651.600796
PG03   1460.951313  16360.603656 -20997.153070   -141.705626
PG04  -1078.309507  26188.448178  -4002.691882   -186.837314
PG05  15253.018550  -8788.290473  19772.625790    -72.982689
PG06  20899.905301  -1675.860218 -16281.792105    215.607961
PG07   7944.363757  13473.120390  21830.039540    313.258221
PG08  -7083.477886  21329.982096  13844.110893    -57.925808
PG09   7678.066029  24497.677384   6672.247199   -352.176760
PG10 -23944.956353 -11791.997713   1422.924188   -332.885418
PG11  23397.355462 -12077.808328  -3446.213638    -75.378013
PG12   2887.117555 -15378.782691 -21743.176182   -177.662376
PG13  12862.877052 -14416.288811  18000.259882    268.927244
PG14  23124.894793  13015.756390   1822.875409    -88.893023
PG15   4537.396209 -22504.861899  12674.548240    -80.463319
PG16 -19069.311375   3476.843806  18094.066602   -474.960697
PG17  12841.463316  13669.971142 -18355.336065    580.938746
PG18  -7228.472291 -13200.438099  21876.440994    230.612787
PG19  14605.978077   5508.659950 -21775.207998    124.728504
PG20  22362.922626  -4054.257601  13541.876863    516.508190
PG21 -16380.008397  19364.079081  -5981.404382    158.727543
PG22 -14997.013706  -1814.732497 -21454.360894    220.220089
PG23 -17631.387886 -16118.589599  11700.990799     -2.661117
PG24  10969.104316 -20904.431939 -12048.236092    271.843930
PG25 -11095.494482 -17820.184413 -16722.351188    291.707460
PG26 -25184.775522  -3369.259601   8177.842612    186.907473
PG27 -12709.254302  11056.320760  20230.653718    136.875987
PG28  24017.537551   8935.529446  -5991.490452    390.905161
PG29  -3917.320212 -25771.241730   4892.564221   -485.601985
PG30  15823.899399   7167.045490  20221.494212   -516.007043
PG31 -22510.207424   3190.430025 -14233.293202   -166.760240
PG32 -15019.619437  -9010.186169 -19886.538629    -75.721026
PJ01 -20693.103403  21728.055113 -25035.480981    224.524521
PJ02 -29485.318973  21295.626787  26281.034376     -1.641334
PJ03 -31401.034891  26496.388231  14606.616713     -0.738571
PR01    913.257496 -16020.499915  19829.104216      7.153469
PR02 -11768.264953 -22406.055281   3492.916113    511.040857
PR03 -16345.468649 -14249.448719 -13433.566069     52.275134
PR04 -11479.303212   1587.248002 -22694.708198    129.726589
PR05   -464.178345  16573.055141 -19361.936226     88.526277
PR07  16305.827570  13576.652963  14163.081320     32.122747
PR08  11520.519317  -1859.297734  22738.186355    -63.772957
PR09   9502.153501  10119.262703  21427.754122     41.833102
PR11  24124.813669  -4489.337338  -6976.615790     44.710062
PR12  10392.485761 -10372.946271 -20832.539010     17.307112
PR13  -8169.325679 -10142.549610 -21955.262467    -18.827321
PR14 -23304.959365  -3726.533691  -9659.449414     74.870219
PR15 -23880.622153   4574.943593   7729.528340     97.897651
PR17 -10159.882683  -3317.888587  23172.825939    505.501784
PR18 -15209.037412  12798.622168  15966.589245    108.763334
PR19 -13376.834852  21673.734756   1377.135155   -179.789393
PR20  -1990.078879  18569.038114 -17338.910668    -65.759943
PR21  10755.160896   1927.922543 -23045.174531   -281.504523
PR22  15364.298112 -13590.983005 -15243.697312   -167.516785
PR24    780.021858 -18397.897300  17667.374137     82.205141
EOF
